ISS (ZARYA)             
1 25544U 98067A   26021.27150986  .00020903  00000+0  37939-3 0  9996
2 25544  51.6330 306.7706 0007779  41.9176 318.2407 15.49511068548986
CSS (TIANHE)            
1 48274U 21035A   26021.34262028  .00034073  00000+0  39794-3 0  9995
2 48274  41.4670 135.9803 0010636 328.9638  31.0572 15.60837441270212
ISS (NAUKA)             
1 49044U 21066A   26020.88454504  .00023329  00000+0  42269-3 0  9998
2 49044  51.6331 308.6863 0007748  41.1873 318.9699 15.49488068230447
FREGAT DEB              
1 49271U 11037PF  26021.46844977  .00057197  00000+0  10649+0 0  9992
2 49271  51.6188  81.7874 0906522 311.6495  41.0082 12.36412603206845
CSS (WENTIAN)           
1 53239U 22085A   26020.70276378  .00038992  00000+0  45544-3 0  9994
2 53239  41.4671 139.8756 0010813 324.6098  35.4022 15.60783355173843
CSS (MENGTIAN)          
1 54216U 22143A   26020.70276378  .00038992  00000+0  45544-3 0  9995
2 54216  41.4671 139.8756 0010813 324.6098  35.4022 15.60783355158640
SHENZHOU-20 (SZ-20)     
1 63632U 25082A   26020.70276378  .00038992  00000+0  45544-3 0  9992
2 63632  41.4671 139.8756 0010813 324.6098  35.4022 15.60783355255303
PROGRESS-MS 31          
1 64751U 25146A   26020.88454504  .00023329  00000+0  42269-3 0  9993
2 64751  51.6331 308.6863 0007748  41.1873 318.9699 15.49488068  6754
TIANZHOU-9              
1 64786U 25149A   26020.70276378  .00038992  00000+0  45544-3 0  9997
2 64786  41.4671 139.8756 0010813 324.6098  35.4022 15.60783355255304
DRAGON CRS-33           
1 65304U 25186A   26020.88454504  .00023329  00000+0  42269-3 0  9992
2 65304  51.6331 308.6863 0007748  41.1873 318.9699 15.49488068   113
PROGRESS-MS 32          
1 65586U 25204A   26020.88454504  .00023329  00000+0  42269-3 0  9995
2 65586  51.6331 308.6863 0007748  41.1873 318.9699 15.49488068   272
CYGNUS NG-23            
1 65616U 25208A   26020.88454504  .00023329  00000+0  42269-3 0  9993
2 65616  51.6331 308.6863 0007748  41.1873 318.9699 15.49488068   221
