CCSDS_OMM_VERS = 2.0
CREATION_DATE  = 
ORIGINATOR     = 

OBJECT_NAME    = ISS (ZARYA)
OBJECT_ID      = 1998-067A
CENTER_NAME    = EARTH
REF_FRAME      = TEME
TIME_SYSTEM    = UTC
MEAN_ELEMENT_THEORY = SGP/SGP4

EPOCH          = 2026-01-21T06:30:58.451904
MEAN_MOTION    = 15.49511068
ECCENTRICITY   = .0007779
INCLINATION    = 51.6330
RA_OF_ASC_NODE = 306.7706
ARG_OF_PERICENTER = 41.9176
MEAN_ANOMALY   = 318.2407

EPHEMERIS_TYPE = 0
CLASSIFICATION_TYPE = U
NORAD_CAT_ID   = 25544
ELEMENT_SET_NO = 999
REV_AT_EPOCH   = 54898
BSTAR          = .37939E-3
MEAN_MOTION_DOT = .20903E-3
MEAN_MOTION_DDOT = 0

CCSDS_OMM_VERS = 2.0
CREATION_DATE  = 
ORIGINATOR     = 

OBJECT_NAME    = CSS (TIANHE)
OBJECT_ID      = 2021-035A
CENTER_NAME    = EARTH
REF_FRAME      = TEME
TIME_SYSTEM    = UTC
MEAN_ELEMENT_THEORY = SGP/SGP4

EPOCH          = 2026-01-21T08:13:22.392192
MEAN_MOTION    = 15.60837441
ECCENTRICITY   = .0010636
INCLINATION    = 41.4670
RA_OF_ASC_NODE = 135.9803
ARG_OF_PERICENTER = 328.9638
MEAN_ANOMALY   = 31.0572

EPHEMERIS_TYPE = 0
CLASSIFICATION_TYPE = U
NORAD_CAT_ID   = 48274
ELEMENT_SET_NO = 999
REV_AT_EPOCH   = 27021
BSTAR          = .39794E-3
MEAN_MOTION_DOT = .34073E-3
MEAN_MOTION_DDOT = 0

CCSDS_OMM_VERS = 2.0
CREATION_DATE  = 
ORIGINATOR     = 

OBJECT_NAME    = ISS (NAUKA)
OBJECT_ID      = 2021-066A
CENTER_NAME    = EARTH
REF_FRAME      = TEME
TIME_SYSTEM    = UTC
MEAN_ELEMENT_THEORY = SGP/SGP4

EPOCH          = 2026-01-20T21:13:44.691456
MEAN_MOTION    = 15.49488068
ECCENTRICITY   = .00077481
INCLINATION    = 51.6331
RA_OF_ASC_NODE = 308.6863
ARG_OF_PERICENTER = 41.1873
MEAN_ANOMALY   = 318.9699

EPHEMERIS_TYPE = 0
CLASSIFICATION_TYPE = U
NORAD_CAT_ID   = 49044
ELEMENT_SET_NO = 999
REV_AT_EPOCH   = 23044
BSTAR          = .42269167E-3
MEAN_MOTION_DOT = .23329E-3
MEAN_MOTION_DDOT = 0

CCSDS_OMM_VERS = 2.0
CREATION_DATE  = 
ORIGINATOR     = 

OBJECT_NAME    = FREGAT DEB
OBJECT_ID      = 2011-037PF
CENTER_NAME    = EARTH
REF_FRAME      = TEME
TIME_SYSTEM    = UTC
MEAN_ELEMENT_THEORY = SGP/SGP4

EPOCH          = 2026-01-21T11:14:34.060128
MEAN_MOTION    = 12.36412603
ECCENTRICITY   = .0906522
INCLINATION    = 51.6188
RA_OF_ASC_NODE = 81.7874
ARG_OF_PERICENTER = 311.6495
MEAN_ANOMALY   = 41.0082

EPHEMERIS_TYPE = 0
CLASSIFICATION_TYPE = U
NORAD_CAT_ID   = 49271
ELEMENT_SET_NO = 999
REV_AT_EPOCH   = 20684
BSTAR          = .10649E+0
MEAN_MOTION_DOT = .57197E-3
MEAN_MOTION_DDOT = 0

CCSDS_OMM_VERS = 2.0
CREATION_DATE  = 
ORIGINATOR     = 

OBJECT_NAME    = CSS (WENTIAN)
OBJECT_ID      = 2022-085A
CENTER_NAME    = EARTH
REF_FRAME      = TEME
TIME_SYSTEM    = UTC
MEAN_ELEMENT_THEORY = SGP/SGP4

EPOCH          = 2026-01-20T16:51:58.790592
MEAN_MOTION    = 15.60783355
ECCENTRICITY   = .0010813
INCLINATION    = 41.4671
RA_OF_ASC_NODE = 139.8756
ARG_OF_PERICENTER = 324.6098
MEAN_ANOMALY   = 35.4022

EPHEMERIS_TYPE = 0
CLASSIFICATION_TYPE = U
NORAD_CAT_ID   = 53239
ELEMENT_SET_NO = 999
REV_AT_EPOCH   = 17384
BSTAR          = .45544102E-3
MEAN_MOTION_DOT = .38992E-3
MEAN_MOTION_DDOT = 0

CCSDS_OMM_VERS = 2.0
CREATION_DATE  = 
ORIGINATOR     = 

OBJECT_NAME    = CSS (MENGTIAN)
OBJECT_ID      = 2022-143A
CENTER_NAME    = EARTH
REF_FRAME      = TEME
TIME_SYSTEM    = UTC
MEAN_ELEMENT_THEORY = SGP/SGP4

EPOCH          = 2026-01-20T16:51:58.790592
MEAN_MOTION    = 15.60783355
ECCENTRICITY   = .0010813
INCLINATION    = 41.4671
RA_OF_ASC_NODE = 139.8756
ARG_OF_PERICENTER = 324.6098
MEAN_ANOMALY   = 35.4022

EPHEMERIS_TYPE = 0
CLASSIFICATION_TYPE = U
NORAD_CAT_ID   = 54216
ELEMENT_SET_NO = 999
REV_AT_EPOCH   = 15864
BSTAR          = .45544102E-3
MEAN_MOTION_DOT = .38992E-3
MEAN_MOTION_DDOT = 0

CCSDS_OMM_VERS = 2.0
CREATION_DATE  = 
ORIGINATOR     = 

OBJECT_NAME    = SHENZHOU-20 (SZ-20)
OBJECT_ID      = 2025-082A
CENTER_NAME    = EARTH
REF_FRAME      = TEME
TIME_SYSTEM    = UTC
MEAN_ELEMENT_THEORY = SGP/SGP4

EPOCH          = 2026-01-20T16:51:58.790592
MEAN_MOTION    = 15.60783355
ECCENTRICITY   = .0010813
INCLINATION    = 41.4671
RA_OF_ASC_NODE = 139.8756
ARG_OF_PERICENTER = 324.6098
MEAN_ANOMALY   = 35.4022

EPHEMERIS_TYPE = 0
CLASSIFICATION_TYPE = U
NORAD_CAT_ID   = 63632
ELEMENT_SET_NO = 999
REV_AT_EPOCH   = 25530
BSTAR          = .45544102E-3
MEAN_MOTION_DOT = .38992E-3
MEAN_MOTION_DDOT = 0

CCSDS_OMM_VERS = 2.0
CREATION_DATE  = 
ORIGINATOR     = 

OBJECT_NAME    = PROGRESS-MS 31
OBJECT_ID      = 2025-146A
CENTER_NAME    = EARTH
REF_FRAME      = TEME
TIME_SYSTEM    = UTC
MEAN_ELEMENT_THEORY = SGP/SGP4

EPOCH          = 2026-01-20T21:13:44.691456
MEAN_MOTION    = 15.49488068
ECCENTRICITY   = .00077481
INCLINATION    = 51.6331
RA_OF_ASC_NODE = 308.6863
ARG_OF_PERICENTER = 41.1873
MEAN_ANOMALY   = 318.9699

EPHEMERIS_TYPE = 0
CLASSIFICATION_TYPE = U
NORAD_CAT_ID   = 64751
ELEMENT_SET_NO = 999
REV_AT_EPOCH   = 675
BSTAR          = .42269167E-3
MEAN_MOTION_DOT = .23329E-3
MEAN_MOTION_DDOT = 0

CCSDS_OMM_VERS = 2.0
CREATION_DATE  = 
ORIGINATOR     = 

OBJECT_NAME    = TIANZHOU-9
OBJECT_ID      = 2025-149A
CENTER_NAME    = EARTH
REF_FRAME      = TEME
TIME_SYSTEM    = UTC
MEAN_ELEMENT_THEORY = SGP/SGP4

EPOCH          = 2026-01-20T16:51:58.790592
MEAN_MOTION    = 15.60783355
ECCENTRICITY   = .0010813
INCLINATION    = 41.4671
RA_OF_ASC_NODE = 139.8756
ARG_OF_PERICENTER = 324.6098
MEAN_ANOMALY   = 35.4022

EPHEMERIS_TYPE = 0
CLASSIFICATION_TYPE = U
NORAD_CAT_ID   = 64786
ELEMENT_SET_NO = 999
REV_AT_EPOCH   = 25530
BSTAR          = .45544102E-3
MEAN_MOTION_DOT = .38992E-3
MEAN_MOTION_DDOT = 0

CCSDS_OMM_VERS = 2.0
CREATION_DATE  = 
ORIGINATOR     = 

OBJECT_NAME    = DRAGON CRS-33
OBJECT_ID      = 2025-186A
CENTER_NAME    = EARTH
REF_FRAME      = TEME
TIME_SYSTEM    = UTC
MEAN_ELEMENT_THEORY = SGP/SGP4

EPOCH          = 2026-01-20T21:13:44.691456
MEAN_MOTION    = 15.49488068
ECCENTRICITY   = .00077481
INCLINATION    = 51.6331
RA_OF_ASC_NODE = 308.6863
ARG_OF_PERICENTER = 41.1873
MEAN_ANOMALY   = 318.9699

EPHEMERIS_TYPE = 0
CLASSIFICATION_TYPE = U
NORAD_CAT_ID   = 65304
ELEMENT_SET_NO = 999
REV_AT_EPOCH   = 11
BSTAR          = .42269167E-3
MEAN_MOTION_DOT = .23329E-3
MEAN_MOTION_DDOT = 0

CCSDS_OMM_VERS = 2.0
CREATION_DATE  = 
ORIGINATOR     = 

OBJECT_NAME    = PROGRESS-MS 32
OBJECT_ID      = 2025-204A
CENTER_NAME    = EARTH
REF_FRAME      = TEME
TIME_SYSTEM    = UTC
MEAN_ELEMENT_THEORY = SGP/SGP4

EPOCH          = 2026-01-20T21:13:44.691456
MEAN_MOTION    = 15.49488068
ECCENTRICITY   = .00077481
INCLINATION    = 51.6331
RA_OF_ASC_NODE = 308.6863
ARG_OF_PERICENTER = 41.1873
MEAN_ANOMALY   = 318.9699

EPHEMERIS_TYPE = 0
CLASSIFICATION_TYPE = U
NORAD_CAT_ID   = 65586
ELEMENT_SET_NO = 999
REV_AT_EPOCH   = 27
BSTAR          = .42269167E-3
MEAN_MOTION_DOT = .23329E-3
MEAN_MOTION_DDOT = 0

CCSDS_OMM_VERS = 2.0
CREATION_DATE  = 
ORIGINATOR     = 

OBJECT_NAME    = CYGNUS NG-23
OBJECT_ID      = 2025-208A
CENTER_NAME    = EARTH
REF_FRAME      = TEME
TIME_SYSTEM    = UTC
MEAN_ELEMENT_THEORY = SGP/SGP4

EPOCH          = 2026-01-20T21:13:44.691456
MEAN_MOTION    = 15.49488068
ECCENTRICITY   = .00077481
INCLINATION    = 51.6331
RA_OF_ASC_NODE = 308.6863
ARG_OF_PERICENTER = 41.1873
MEAN_ANOMALY   = 318.9699

EPHEMERIS_TYPE = 0
CLASSIFICATION_TYPE = U
NORAD_CAT_ID   = 65616
ELEMENT_SET_NO = 999
REV_AT_EPOCH   = 22
BSTAR          = .42269167E-3
MEAN_MOTION_DOT = .23329E-3
MEAN_MOTION_DDOT = 0

